IRIDIUM 135             
1 43070U 17083A   26190.33795429  .00000041  00000+0  75820-5 0  9994
2 43070  86.3981 312.7552 0002174  93.0258 267.1187 14.34217095447325
IRIDIUM 138             
1 43071U 17083B   26189.87494412  .00000132  00000+0  40222-4 0  9998
2 43071  86.3995 312.6476 0002070  91.1830 268.9603 14.34216935447240
IRIDIUM 116             
1 43072U 17083C   26189.84322749  .00000184  00000+0  58600-4 0  9995
2 43072  86.3982 312.9478 0002372 100.2610 259.8854 14.34219576447279
IRIDIUM 130             
1 43073U 17083D   26190.29989865  .00000163  00000+0  50980-4 0  9995
2 43073  86.3990 313.0346 0002124 100.8223 259.3212 14.34216445447282
IRIDIUM 151             
1 43074U 17083E   26190.27452727  .00000183  00000+0  58402-4 0  9995
2 43074  86.3984 312.8256 0002204  95.7580 264.3867 14.34216638447309
IRIDIUM 134             
1 43075U 17083F   26189.89397202 -.00000078  00000+0 -34865-4 0  9990
2 43075  86.3983 312.9933 0002067  95.5365 264.6067 14.34216913447219
IRIDIUM 137             
1 43076U 17083G   26190.32527001  .00000171  00000+0  54135-4 0  9997
2 43076  86.3986 312.9062 0002637  95.9640 264.1857 14.34217192447345
IRIDIUM 141             
1 43077U 17083H   26190.31892397  .00000044  00000+0  87805-5 0  9990
2 43077  86.3981 312.7381 0002190  92.2074 267.9373 14.34218254447342
IRIDIUM 153             
1 43078U 17083J   26190.20133549  .00000256  00000+0  84223-4 0  9991
2 43078  86.3962 281.2676 0002106  94.1217 266.0220 14.34217640448436
IRIDIUM 131             
1 43079U 17083K   26190.30624127 -.00000187  00000+0 -74015-4 0  9993
2 43079  86.3985 312.9310 0002095  92.4895 267.6541 14.34216731447273
IRIDIUM 144             
1 43249U 18030A   26189.85883596  .00000028  00000+0  28100-5 0  9997
2 43249  86.3960 281.3392 0002357  97.4175 262.7289 14.34217724433241
IRIDIUM 149             
1 43250U 18030B   26190.21402123  .00000089  00000+0  24846-4 0  9993
2 43250  86.3960 281.1576 0002231  93.7766 266.3685 14.34216997433310
IRIDIUM 157             
1 43251U 18030C   26190.23305025  .00000058  00000+0  13586-4 0  9994
2 43251  86.3962 281.2032 0002245  94.1188 266.0264 14.34216377433298
IRIDIUM 140             
1 43252U 18030D   26190.25207630  .00000111  00000+0  32658-4 0  9991
2 43252  86.3960 281.2080 0002197  95.5997 264.5450 14.34216027433358
IRIDIUM 145             
1 43253U 18030E   26190.23938779  .00000097  00000+0  27565-4 0  9999
2 43253  86.3956 281.1855 0002401 102.7101 257.4364 14.34216114433283
IRIDIUM 146             
1 43254U 18030F   26189.87151938  .00000202  00000+0  65049-4 0  9999
2 43254  86.3961 281.3513 0002319  97.8277 262.3183 14.34217368433241
IRIDIUM 148             
1 43255U 18030G   26190.25842107  .00000105  00000+0  30430-4 0  9997
2 43255  86.3963 281.2331 0002328  94.4711 265.6751 14.34216442433336
IRIDIUM 142             
1 43256U 18030H   26190.22670691  .00000188  00000+0  60238-4 0  9992
2 43256  86.3959 281.1345 0002376  98.7350 261.4115 14.34217247433292
IRIDIUM 150             
1 43257U 18030J   26190.19498868  .00000105  00000+0  30301-4 0  9990
2 43257  86.3963 281.2649 0002245  96.3816 263.7636 14.34219442433317
IRIDIUM 143             
1 43258U 18030K   26190.24573348  .00000238  00000+0  77927-4 0  9996
2 43258  86.3964 281.3368 0002302  98.2265 261.9192 14.34217212433254
IRIDIUM 161             
1 43478U 18047C   26190.21618748  .00000208  00000+0  55734-4 0  9998
2 43478  86.4469  79.2595 0002353  78.9993 281.1472 14.43284336428311
IRIDIUM 152             
1 43479U 18047D   26190.21845939  .00000162  00000+0  50953-4 0  9990
2 43479  86.3944  79.1199 0002172  82.5193 277.6250 14.34218640425642
IRIDIUM 147             
1 43480U 18047E   26190.22479194  .00000175  00000+0  55549-4 0  9999
2 43480  86.3944  79.1227 0002279  89.2340 270.9117 14.34216440425646
IRIDIUM 110             
1 43481U 18047F   26190.16136923  .00000166  00000+0  52174-4 0  9994
2 43481  86.3949  79.2419 0002244  77.2667 282.8780 14.34217012425629
IRIDIUM 162             
1 43482U 18047G   26190.14055877  .00000211  00000+0  56716-4 0  9998
2 43482  86.4468  79.1820 0002197  84.2172 275.9279 14.43283103428294
IRIDIUM 160             
1 43569U 18061A   26190.03743589  .00000112  00000+0  33047-4 0  9994
2 43569  86.3938  47.6585 0002260  86.3062 273.8392 14.34217436416501
IRIDIUM 166             
1 43570U 18061B   26190.06280519  .00000022  00000+0  85109-6 0  9996
2 43570  86.3942  47.5979 0002247  89.5934 270.5519 14.34217900416536
IRIDIUM 158             
1 43571U 18061C   26190.03109241 -.00000160  00000+0 -64200-4 0  9998
2 43571  86.3938  47.6212 0002010  85.3514 274.7911 14.34216853416492
IRIDIUM 165             
1 43572U 18061D   26189.63785081  .00000097  00000+0  27444-4 0  9991
2 43572  86.3947  47.8329 0002148  88.4828 271.6614 14.34215176416468
IRIDIUM 155             
1 43573U 18061E   26190.01840615 -.00000136  00000+0 -55750-4 0  9998
2 43573  86.3936  47.5411 0002014  87.6769 272.4657 14.34216550416488
